{
  "type": "FeatureCollection",
  "features": [
    {
      "type": "Feature",
      "geometry": {
        "type": "MultiPolygon",
        "coordinates": [
          [
            [
              [
                -73.057224,
                -36.830094
              ],
              [
                -73.056922,
                -36.829899
              ],
              [
                -73.0562,
                -36.830068
              ],
              [
                -73.054375,
                -36.830532
              ],
              [
                -73.053672,
                -36.831531
              ],
              [
                -73.053533,
                -36.831863
              ],
              [
                -73.054112,
                -36.83328
              ],
              [
                -73.054473,
                -36.834153
              ],
              [
                -73.054498,
                -36.834162
              ],
              [
                -73.055469,
                -36.83398
              ],
              [
                -73.057294,
                -36.833449
              ],
              [
                -73.057931,
                -36.832143
              ],
              [
                -73.057933,
                -36.831984
              ],
              [
                -73.057897,
                -36.831606
              ],
              [
                -73.057389,
                -36.830455
              ],
              [
                -73.057224,
                -36.830094
              ]
            ]
          ],
          [
            [
              [
                -73.050877,
                -36.825128
              ],
              [
                -73.050572,
                -36.824937
              ],
              [
                -73.049628,
                -36.82513
              ],
              [
                -73.048411,
                -36.825484
              ],
              [
                -73.04826,
                -36.825534
              ],
              [
                -73.047497,
                -36.826413
              ],
              [
                -73.047471,
                -36.826453
              ],
              [
                -73.047484,
                -36.826701
              ],
              [
                -73.047496,
                -36.826819
              ],
              [
                -73.047546,
                -36.826952
              ],
              [
                -73.048082,
                -36.828305
              ],
              [
                -73.04823,
                -36.828623
              ],
              [
                -73.048532,
                -36.828819
              ],
              [
                -73.050232,
                -36.828849
              ],
              [
                -73.051568,
                -36.828417
              ],
              [
                -73.052116,
                -36.827506
              ],
              [
                -73.052254,
                -36.827174
              ],
              [
                -73.052239,
                -36.827074
              ],
              [
                -73.051832,
                -36.826108
              ],
              [
                -73.050877,
                -36.825128
              ]
            ]
          ],
          [
            [
              [
                -73.046293,
                -36.821626
              ],
              [
                -73.045037,
                -36.821055
              ],
              [
                -73.042434,
                -36.821708
              ],
              [
                -73.042298,
                -36.822042
              ],
              [
                -73.042913,
                -36.823586
              ],
              [
                -73.043135,
                -36.824082
              ],
              [
                -73.04344,
                -36.824274
              ],
              [
                -73.044546,
                -36.8248
              ],
              [
                -73.044606,
                -36.824824
              ],
              [
                -73.047267,
                -36.824135
              ],
              [
                -73.047406,
                -36.823803
              ],
              [
                -73.046795,
                -36.822258
              ],
              [
                -73.046597,
                -36.821819
              ],
              [
                -73.046293,
                -36.821626
              ]
            ]
          ]
        ]
      },
      "properties": {
        "zone_id": 1,
        "name": "Zona Marraqueta Crocante",
        "time_range": "0 - 3 min",
        "crispness_level": "Óptima / Crocante",
        "color": "#FF5722",
        "opacity": 0.7
      }
    },
    {
      "type": "Feature",
      "geometry": {
        "type": "Polygon",
        "coordinates": [
          [
            [
              -73.05151,
              -36.834493
            ],
            [
              -73.055564,
              -36.836798
            ],
            [
              -73.055921,
              -36.836839
            ],
            [
              -73.060318,
              -36.833498
            ],
            [
              -73.060456,
              -36.833165
            ],
            [
              -73.060503,
              -36.831112
            ],
            [
              -73.060444,
              -36.830894
            ],
            [
              -73.059993,
              -36.829786
            ],
            [
              -73.058935,
              -36.827425
            ],
            [
              -73.058799,
              -36.827247
            ],
            [
              -73.058694,
              -36.827203
            ],
            [
              -73.0553736974811,
              -36.82797560160769
            ],
            [
              -73.054962,
              -36.826933
            ],
            [
              -73.053501,
              -36.823319
            ],
            [
              -73.052583,
              -36.822463
            ],
            [
              -73.052281,
              -36.822267
            ],
            [
              -73.04981719226414,
              -36.8228845733342
            ],
            [
              -73.049473,
              -36.822023
            ],
            [
              -73.048874,
              -36.820546
            ],
            [
              -73.048273,
              -36.819137
            ],
            [
              -73.047967,
              -36.818947
            ],
            [
              -73.046902,
              -36.818393
            ],
            [
              -73.046871,
              -36.818379
            ],
            [
              -73.046802,
              -36.818352
            ],
            [
              -73.045106,
              -36.818609
            ],
            [
              -73.04257,
              -36.819276
            ],
            [
              -73.039114,
              -36.820324
            ],
            [
              -73.03903,
              -36.820452
            ],
            [
              -73.03896,
              -36.820564
            ],
            [
              -73.038975,
              -36.820657
            ],
            [
              -73.040704,
              -36.82539
            ],
            [
              -73.041361,
              -36.826619
            ],
            [
              -73.042963,
              -36.827461
            ],
            [
              -73.043008,
              -36.82748
            ],
            [
              -73.04461878132483,
              -36.82710063517168
            ],
            [
              -73.046532,
              -36.831297
            ],
            [
              -73.046836,
              -36.831489
            ],
            [
              -73.048458,
              -36.831437
            ],
            [
              -73.05035765140279,
              -36.83095448448894
            ],
            [
              -73.0513,
              -36.83397
            ],
            [
              -73.05151,
              -36.834493
            ]
          ],
          [
            [
              -73.057389,
              -36.830455
            ],
            [
              -73.057897,
              -36.831606
            ],
            [
              -73.057933,
              -36.831984
            ],
            [
              -73.057931,
              -36.832143
            ],
            [
              -73.057294,
              -36.833449
            ],
            [
              -73.055469,
              -36.83398
            ],
            [
              -73.054498,
              -36.834162
            ],
            [
              -73.054473,
              -36.834153
            ],
            [
              -73.054112,
              -36.83328
            ],
            [
              -73.053533,
              -36.831863
            ],
            [
              -73.053672,
              -36.831531
            ],
            [
              -73.054375,
              -36.830532
            ],
            [
              -73.0562,
              -36.830068
            ],
            [
              -73.056922,
              -36.829899
            ],
            [
              -73.057224,
              -36.830094
            ],
            [
              -73.057389,
              -36.830455
            ]
          ],
          [
            [
              -73.051832,
              -36.826108
            ],
            [
              -73.052239,
              -36.827074
            ],
            [
              -73.052254,
              -36.827174
            ],
            [
              -73.052116,
              -36.827506
            ],
            [
              -73.051568,
              -36.828417
            ],
            [
              -73.050232,
              -36.828849
            ],
            [
              -73.048532,
              -36.828819
            ],
            [
              -73.04823,
              -36.828623
            ],
            [
              -73.048082,
              -36.828305
            ],
            [
              -73.047546,
              -36.826952
            ],
            [
              -73.047496,
              -36.826819
            ],
            [
              -73.047484,
              -36.826701
            ],
            [
              -73.047471,
              -36.826453
            ],
            [
              -73.047497,
              -36.826413
            ],
            [
              -73.04826,
              -36.825534
            ],
            [
              -73.048411,
              -36.825484
            ],
            [
              -73.049628,
              -36.82513
            ],
            [
              -73.050572,
              -36.824937
            ],
            [
              -73.050877,
              -36.825128
            ],
            [
              -73.051832,
              -36.826108
            ]
          ],
          [
            [
              -73.046597,
              -36.821819
            ],
            [
              -73.046795,
              -36.822258
            ],
            [
              -73.047406,
              -36.823803
            ],
            [
              -73.047267,
              -36.824135
            ],
            [
              -73.044606,
              -36.824824
            ],
            [
              -73.044546,
              -36.8248
            ],
            [
              -73.04344,
              -36.824274
            ],
            [
              -73.043135,
              -36.824082
            ],
            [
              -73.042913,
              -36.823586
            ],
            [
              -73.042298,
              -36.822042
            ],
            [
              -73.042434,
              -36.821708
            ],
            [
              -73.045037,
              -36.821055
            ],
            [
              -73.046293,
              -36.821626
            ],
            [
              -73.046597,
              -36.821819
            ]
          ]
        ]
      },
      "properties": {
        "zone_id": 2,
        "name": "Zona Pan Tibio",
        "time_range": "3 - 7 min",
        "crispness_level": "Media / Comestible",
        "color": "#FFC107",
        "opacity": 0.6
      }
    },
    {
      "type": "Feature",
      "geometry": {
        "type": "Polygon",
        "coordinates": [
          [
            [
              -73.048675,
              -36.835619
            ],
            [
              -73.049483,
              -36.835913
            ],
            [
              -73.05178,
              -36.836611
            ],
            [
              -73.054592,
              -36.839917
            ],
            [
              -73.054649,
              -36.840012
            ],
            [
              -73.054781,
              -36.840144
            ],
            [
              -73.054925,
              -36.840243
            ],
            [
              -73.056918,
              -36.839691
            ],
            [
              -73.061106,
              -36.837609
            ],
            [
              -73.063655,
              -36.833844
            ],
            [
              -73.063957,
              -36.833052
            ],
            [
              -73.064017,
              -36.832697
            ],
            [
              -73.063923,
              -36.832186
            ],
            [
              -73.062683,
              -36.827711
            ],
            [
              -73.061215,
              -36.824398
            ],
            [
              -73.061015,
              -36.823957
            ],
            [
              -73.060767,
              -36.823897
            ],
            [
              -73.05754805257241,
              -36.8246645549125
            ],
            [
              -73.056748,
              -36.822614
            ],
            [
              -73.055658,
              -36.820148
            ],
            [
              -73.054728,
              -36.81913
            ],
            [
              -73.054424,
              -36.818937
            ],
            [
              -73.054274,
              -36.818962
            ],
            [
              -73.052307,
              -36.819431
            ],
            [
              -73.05197449005789,
              -36.81951467279835
            ],
            [
              -73.050537,
              -36.816102
            ],
            [
              -73.050399,
              -36.815804
            ],
            [
              -73.050098,
              -36.815606
            ],
            [
              -73.04879,
              -36.815078
            ],
            [
              -73.047154,
              -36.815262
            ],
            [
              -73.043608,
              -36.815773
            ],
            [
              -73.041677,
              -36.816274
            ],
            [
              -73.038416,
              -36.817548
            ],
            [
              -73.034951,
              -36.818567
            ],
            [
              -73.034808,
              -36.818897
            ],
            [
              -73.035007,
              -36.819466
            ],
            [
              -73.035951,
              -36.822158
            ],
            [
              -73.037405,
              -36.826937
            ],
            [
              -73.037691,
              -36.827904
            ],
            [
              -73.038499,
              -36.828889
            ],
            [
              -73.039506,
              -36.829841
            ],
            [
              -73.039809,
              -36.830035
            ],
            [
              -73.042651,
              -36.830591
            ],
            [
              -73.04279324624015,
              -36.83059164952621
            ],
            [
              -73.042874,
              -36.830684
            ],
            [
              -73.044116,
              -36.832357
            ],
            [
              -73.044692,
              -36.832753
            ],
            [
              -73.047286,
              -36.834204
            ],
            [
              -73.04740116491877,
              -36.8342005614266
            ],
            [
              -73.048107,
              -36.835372
            ],
            [
              -73.048675,
              -36.835619
            ]
          ],
          [
            [
              -73.05035765140279,
              -36.83095448448894
            ],
            [
              -73.048458,
              -36.831437
            ],
            [
              -73.046836,
              -36.831489
            ],
            [
              -73.046532,
              -36.831297
            ],
            [
              -73.04461878132483,
              -36.82710063517168
            ],
            [
              -73.043008,
              -36.82748
            ],
            [
              -73.042963,
              -36.827461
            ],
            [
              -73.041361,
              -36.826619
            ],
            [
              -73.040704,
              -36.82539
            ],
            [
              -73.038975,
              -36.820657
            ],
            [
              -73.03896,
              -36.820564
            ],
            [
              -73.03903,
              -36.820452
            ],
            [
              -73.039114,
              -36.820324
            ],
            [
              -73.04257,
              -36.819276
            ],
            [
              -73.045106,
              -36.818609
            ],
            [
              -73.046802,
              -36.818352
            ],
            [
              -73.046871,
              -36.818379
            ],
            [
              -73.046902,
              -36.818393
            ],
            [
              -73.047967,
              -36.818947
            ],
            [
              -73.048273,
              -36.819137
            ],
            [
              -73.048874,
              -36.820546
            ],
            [
              -73.049473,
              -36.822023
            ],
            [
              -73.04981719226414,
              -36.8228845733342
            ],
            [
              -73.052281,
              -36.822267
            ],
            [
              -73.052583,
              -36.822463
            ],
            [
              -73.053501,
              -36.823319
            ],
            [
              -73.054962,
              -36.826933
            ],
            [
              -73.0553736974811,
              -36.82797560160769
            ],
            [
              -73.058694,
              -36.827203
            ],
            [
              -73.058799,
              -36.827247
            ],
            [
              -73.058935,
              -36.827425
            ],
            [
              -73.059993,
              -36.829786
            ],
            [
              -73.060444,
              -36.830894
            ],
            [
              -73.060503,
              -36.831112
            ],
            [
              -73.060456,
              -36.833165
            ],
            [
              -73.060318,
              -36.833498
            ],
            [
              -73.055921,
              -36.836839
            ],
            [
              -73.055564,
              -36.836798
            ],
            [
              -73.05151,
              -36.834493
            ],
            [
              -73.0513,
              -36.83397
            ],
            [
              -73.05035765140279,
              -36.83095448448894
            ]
          ]
        ]
      },
      "properties": {
        "zone_id": 3,
        "name": "Zona Goma",
        "time_range": "7 - 12 min",
        "crispness_level": "Baja / Requiere Tostadora",
        "color": "#607D8B",
        "opacity": 0.5
      }
    }
  ]
}