{
  "type": "FeatureCollection",
  "features": [
    {
      "type": "Feature",
      "geometry": {
        "type": "MultiPolygon",
        "coordinates": [
          [
            [
              [
                -70.622791,
                -33.435995
              ],
              [
                -70.62245,
                -33.435881
              ],
              [
                -70.622397,
                -33.4359
              ],
              [
                -70.622049,
                -33.436041
              ],
              [
                -70.620307,
                -33.436809
              ],
              [
                -70.619744,
                -33.437714
              ],
              [
                -70.619669,
                -33.438066
              ],
              [
                -70.620266,
                -33.439309
              ],
              [
                -70.620725,
                -33.439854
              ],
              [
                -70.621135,
                -33.440091
              ],
              [
                -70.621481,
                -33.44019
              ],
              [
                -70.62282,
                -33.43953
              ],
              [
                -70.622894,
                -33.439177
              ],
              [
                -70.623218,
                -33.436427
              ],
              [
                -70.622791,
                -33.435995
              ]
            ]
          ],
          [
            [
              [
                -70.618457,
                -33.427644
              ],
              [
                -70.61765605905877,
                -33.427842313591974
              ],
              [
                -70.61752,
                -33.427459
              ],
              [
                -70.615729,
                -33.426051
              ],
              [
                -70.614517,
                -33.425559
              ],
              [
                -70.614341,
                -33.425613
              ],
              [
                -70.61411176791881,
                -33.42570493637253
              ],
              [
                -70.614222,
                -33.425437
              ],
              [
                -70.614189,
                -33.42528
              ],
              [
                -70.613127,
                -33.423168
              ],
              [
                -70.612875,
                -33.422911
              ],
              [
                -70.611934,
                -33.422955
              ],
              [
                -70.611913,
                -33.422959
              ],
              [
                -70.610532,
                -33.423197
              ],
              [
                -70.610431,
                -33.423225
              ],
              [
                -70.610063,
                -33.423622
              ],
              [
                -70.609647,
                -33.424841
              ],
              [
                -70.610619,
                -33.426862
              ],
              [
                -70.611012,
                -33.427078
              ],
              [
                -70.61135,
                -33.427204
              ],
              [
                -70.611747,
                -33.427048
              ],
              [
                -70.6134850594687,
                -33.42631314807189
              ],
              [
                -70.613682,
                -33.427313
              ],
              [
                -70.613766,
                -33.427473
              ],
              [
                -70.614089,
                -33.427632
              ],
              [
                -70.61697485500241,
                -33.42877406956141
              ],
              [
                -70.616393,
                -33.430548
              ],
              [
                -70.616171,
                -33.431223
              ],
              [
                -70.616534,
                -33.4319
              ],
              [
                -70.616854,
                -33.432065
              ],
              [
                -70.619052,
                -33.431596
              ],
              [
                -70.619203,
                -33.431269
              ],
              [
                -70.619447,
                -33.42925
              ],
              [
                -70.619462,
                -33.429068
              ],
              [
                -70.619014,
                -33.428088
              ],
              [
                -70.618457,
                -33.427644
              ]
            ]
          ],
          [
            [
              [
                -70.608468,
                -33.420202
              ],
              [
                -70.608432,
                -33.420183
              ],
              [
                -70.606771,
                -33.420347
              ],
              [
                -70.606484,
                -33.420565
              ],
              [
                -70.606367,
                -33.421202
              ],
              [
                -70.60653,
                -33.422794
              ],
              [
                -70.606792,
                -33.423332
              ],
              [
                -70.607133,
                -33.423447
              ],
              [
                -70.608436,
                -33.423762
              ],
              [
                -70.609546,
                -33.423479
              ],
              [
                -70.609941,
                -33.423325
              ],
              [
                -70.610145,
                -33.423029
              ],
              [
                -70.610153,
                -33.422931
              ],
              [
                -70.61022,
                -33.421804
              ],
              [
                -70.610192,
                -33.421685
              ],
              [
                -70.60992,
                -33.42145
              ],
              [
                -70.608468,
                -33.420202
              ]
            ]
          ]
        ]
      },
      "properties": {
        "zone_id": 1,
        "name": "Zona Marraqueta Crocante",
        "time_range": "0 - 3 min",
        "crispness_level": "Óptima / Crocante",
        "desc": "El pan conserva su corteza crujiente original al llegar al hogar.",
        "color": "#D84315",
        "opacity": 0.7
      }
    },
    {
      "type": "Feature",
      "geometry": {
        "type": "MultiPolygon",
        "coordinates": [
          [
            [
              [
                -70.621751,
                -33.433535
              ],
              [
                -70.618629,
                -33.435052
              ],
              [
                -70.618523,
                -33.435108
              ],
              [
                -70.618431,
                -33.435166
              ],
              [
                -70.616796,
                -33.436782
              ],
              [
                -70.61674,
                -33.437137
              ],
              [
                -70.616832,
                -33.438515
              ],
              [
                -70.617154,
                -33.439825
              ],
              [
                -70.617215,
                -33.4399
              ],
              [
                -70.618064,
                -33.440929
              ],
              [
                -70.619022,
                -33.442011
              ],
              [
                -70.619081,
                -33.442076
              ],
              [
                -70.619967,
                -33.442845
              ],
              [
                -70.620029,
                -33.442896
              ],
              [
                -70.62029,
                -33.443011
              ],
              [
                -70.620543,
                -33.443084
              ],
              [
                -70.622686,
                -33.442146
              ],
              [
                -70.624511,
                -33.441322
              ],
              [
                -70.626134,
                -33.440369
              ],
              [
                -70.626263,
                -33.440255
              ],
              [
                -70.626337,
                -33.439903
              ],
              [
                -70.625338,
                -33.434723
              ],
              [
                -70.624902,
                -33.434188
              ],
              [
                -70.623926,
                -33.43302
              ],
              [
                -70.623339,
                -33.433007
              ],
              [
                -70.621751,
                -33.433535
              ]
            ],
            [
              [
                -70.623218,
                -33.436427
              ],
              [
                -70.622894,
                -33.439177
              ],
              [
                -70.62282,
                -33.43953
              ],
              [
                -70.621481,
                -33.44019
              ],
              [
                -70.621135,
                -33.440091
              ],
              [
                -70.620725,
                -33.439854
              ],
              [
                -70.620266,
                -33.439309
              ],
              [
                -70.619669,
                -33.438066
              ],
              [
                -70.619744,
                -33.437714
              ],
              [
                -70.620307,
                -33.436809
              ],
              [
                -70.622049,
                -33.436041
              ],
              [
                -70.622397,
                -33.4359
              ],
              [
                -70.62245,
                -33.435881
              ],
              [
                -70.622791,
                -33.435995
              ],
              [
                -70.623218,
                -33.436427
              ]
            ]
          ],
          [
            [
              [
                -70.61999904540045,
                -33.42550880954751
              ],
              [
                -70.619781,
                -33.425242
              ],
              [
                -70.618153,
                -33.423834
              ],
              [
                -70.616948,
                -33.423378
              ],
              [
                -70.61652043142863,
                -33.42337223159141
              ],
              [
                -70.615895,
                -33.422033
              ],
              [
                -70.61537,
                -33.421044
              ],
              [
                -70.615076,
                -33.420616
              ],
              [
                -70.614753,
                -33.420458
              ],
              [
                -70.614451,
                -33.420393
              ],
              [
                -70.6124103295833,
                -33.42061252046358
              ],
              [
                -70.61189,
                -33.418976
              ],
              [
                -70.61186,
                -33.41891
              ],
              [
                -70.610434,
                -33.417677
              ],
              [
                -70.610263,
                -33.417657
              ],
              [
                -70.610132,
                -33.417655
              ],
              [
                -70.60506,
                -33.417723
              ],
              [
                -70.603439,
                -33.418679
              ],
              [
                -70.603309,
                -33.419014
              ],
              [
                -70.603681,
                -33.423099
              ],
              [
                -70.603862,
                -33.423357
              ],
              [
                -70.603974,
                -33.423513
              ],
              [
                -70.605549,
                -33.425649
              ],
              [
                -70.605891,
                -33.426101
              ],
              [
                -70.606233,
                -33.426212
              ],
              [
                -70.60763254451601,
                -33.426458548092995
              ],
              [
                -70.608102,
                -33.42754
              ],
              [
                -70.609752,
                -33.429692
              ],
              [
                -70.609844,
                -33.42981
              ],
              [
                -70.610182,
                -33.429933
              ],
              [
                -70.61175779636015,
                -33.42957940985863
              ],
              [
                -70.612164,
                -33.430001
              ],
              [
                -70.61289393121669,
                -33.430308547872485
              ],
              [
                -70.612845,
                -33.430421
              ],
              [
                -70.612775,
                -33.430774
              ],
              [
                -70.612805,
                -33.430838
              ],
              [
                -70.614499,
                -33.433602
              ],
              [
                -70.615197,
                -33.434348
              ],
              [
                -70.615534,
                -33.434474
              ],
              [
                -70.615566,
                -33.434476
              ],
              [
                -70.616916,
                -33.434404
              ],
              [
                -70.617362,
                -33.434299
              ],
              [
                -70.619919,
                -33.433498
              ],
              [
                -70.622543,
                -33.430535
              ],
              [
                -70.622753,
                -33.430242
              ],
              [
                -70.622738,
                -33.43007
              ],
              [
                -70.622646,
                -33.429561
              ],
              [
                -70.621366,
                -33.426165
              ],
              [
                -70.620199,
                -33.425538
              ],
              [
                -70.61999904540045,
                -33.42550880954751
              ]
            ],
            [
              [
                -70.619014,
                -33.428088
              ],
              [
                -70.619462,
                -33.429068
              ],
              [
                -70.619447,
                -33.42925
              ],
              [
                -70.619203,
                -33.431269
              ],
              [
                -70.619052,
                -33.431596
              ],
              [
                -70.616854,
                -33.432065
              ],
              [
                -70.616534,
                -33.4319
              ],
              [
                -70.616171,
                -33.431223
              ],
              [
                -70.616393,
                -33.430548
              ],
              [
                -70.61697485500241,
                -33.42877406956141
              ],
              [
                -70.614089,
                -33.427632
              ],
              [
                -70.613766,
                -33.427473
              ],
              [
                -70.613682,
                -33.427313
              ],
              [
                -70.6134850594687,
                -33.42631314807189
              ],
              [
                -70.611747,
                -33.427048
              ],
              [
                -70.61135,
                -33.427204
              ],
              [
                -70.611012,
                -33.427078
              ],
              [
                -70.610619,
                -33.426862
              ],
              [
                -70.609647,
                -33.424841
              ],
              [
                -70.610063,
                -33.423622
              ],
              [
                -70.610431,
                -33.423225
              ],
              [
                -70.610532,
                -33.423197
              ],
              [
                -70.611913,
                -33.422959
              ],
              [
                -70.611934,
                -33.422955
              ],
              [
                -70.612875,
                -33.422911
              ],
              [
                -70.613127,
                -33.423168
              ],
              [
                -70.614189,
                -33.42528
              ],
              [
                -70.614222,
                -33.425437
              ],
              [
                -70.61411176791881,
                -33.42570493637253
              ],
              [
                -70.614341,
                -33.425613
              ],
              [
                -70.614517,
                -33.425559
              ],
              [
                -70.615729,
                -33.426051
              ],
              [
                -70.61752,
                -33.427459
              ],
              [
                -70.61765605905877,
                -33.427842313591974
              ],
              [
                -70.618457,
                -33.427644
              ],
              [
                -70.619014,
                -33.428088
              ]
            ],
            [
              [
                -70.60992,
                -33.42145
              ],
              [
                -70.610192,
                -33.421685
              ],
              [
                -70.61022,
                -33.421804
              ],
              [
                -70.610153,
                -33.422931
              ],
              [
                -70.610145,
                -33.423029
              ],
              [
                -70.609941,
                -33.423325
              ],
              [
                -70.609546,
                -33.423479
              ],
              [
                -70.608436,
                -33.423762
              ],
              [
                -70.607133,
                -33.423447
              ],
              [
                -70.606792,
                -33.423332
              ],
              [
                -70.60653,
                -33.422794
              ],
              [
                -70.606367,
                -33.421202
              ],
              [
                -70.606484,
                -33.420565
              ],
              [
                -70.606771,
                -33.420347
              ],
              [
                -70.608432,
                -33.420183
              ],
              [
                -70.608468,
                -33.420202
              ],
              [
                -70.60992,
                -33.42145
              ]
            ]
          ]
        ]
      },
      "properties": {
        "zone_id": 2,
        "name": "Zona Pan Tibio",
        "time_range": "3 - 7 min",
        "crispness_level": "Media / Comestible",
        "desc": "Empieza la pérdida gradual de corteza por vapor atrapado.",
        "color": "#FBC02D",
        "opacity": 0.6
      }
    },
    {
      "type": "Feature",
      "geometry": {
        "type": "Polygon",
        "coordinates": [
          [
            [
              -70.612264,
              -33.438961
            ],
            [
              -70.614853,
              -33.442075
            ],
            [
              -70.617403,
              -33.445471
            ],
            [
              -70.618801,
              -33.446512
            ],
            [
              -70.619143,
              -33.446623
            ],
            [
              -70.619223,
              -33.446632
            ],
            [
              -70.621746,
              -33.44575
            ],
            [
              -70.625494,
              -33.444068
            ],
            [
              -70.625902,
              -33.443882
            ],
            [
              -70.626005,
              -33.443833
            ],
            [
              -70.627941,
              -33.442908
            ],
            [
              -70.628596,
              -33.442577
            ],
            [
              -70.628708,
              -33.44251
            ],
            [
              -70.630559,
              -33.4412
            ],
            [
              -70.630626,
              -33.440846
            ],
            [
              -70.629894,
              -33.43962
            ],
            [
              -70.628444,
              -33.43502
            ],
            [
              -70.628292,
              -33.433891
            ],
            [
              -70.627393,
              -33.430852
            ],
            [
              -70.627249,
              -33.43063
            ],
            [
              -70.62535175196591,
              -33.430078356351125
            ],
            [
              -70.624676,
              -33.428618
            ],
            [
              -70.624636,
              -33.428543
            ],
            [
              -70.624595,
              -33.428467
            ],
            [
              -70.62172994052973,
              -33.42476629818423
            ],
            [
              -70.620463,
              -33.421758
            ],
            [
              -70.62025,
              -33.421467
            ],
            [
              -70.61960939430853,
              -33.42126490686312
            ],
            [
              -70.618953,
              -33.419894
            ],
            [
              -70.618738,
              -33.419605
            ],
            [
              -70.61675,
              -33.417055
            ],
            [
              -70.616311,
              -33.416881
            ],
            [
              -70.61501991086965,
              -33.417091927152406
            ],
            [
              -70.614937,
              -33.416423
            ],
            [
              -70.614713,
              -33.416141
            ],
            [
              -70.613182,
              -33.415377
            ],
            [
              -70.613067,
              -33.415327
            ],
            [
              -70.61113,
              -33.415026
            ],
            [
              -70.609502,
              -33.414941
            ],
            [
              -70.603995,
              -33.414088
            ],
            [
              -70.603652,
              -33.414198
            ],
            [
              -70.599453,
              -33.417382
            ],
            [
              -70.599352,
              -33.417727
            ],
            [
              -70.599387,
              -33.422263
            ],
            [
              -70.599775,
              -33.422821
            ],
            [
              -70.601185,
              -33.424797
            ],
            [
              -70.604341,
              -33.429225
            ],
            [
              -70.604651,
              -33.429632
            ],
            [
              -70.604717,
              -33.429716
            ],
            [
              -70.60613501173376,
              -33.430254018091176
            ],
            [
              -70.606274,
              -33.430481
            ],
            [
              -70.60668,
              -33.431115
            ],
            [
              -70.608679,
              -33.433436
            ],
            [
              -70.609023,
              -33.433543
            ],
            [
              -70.61051188504646,
              -33.43320255756123
            ],
            [
              -70.611632,
              -33.434997
            ],
            [
              -70.61271599352952,
              -33.43672501681925
            ],
            [
              -70.61245,
              -33.437217
            ],
            [
              -70.612312,
              -33.437549
            ],
            [
              -70.612264,
              -33.438961
            ]
          ],
          [
            [
              -70.623926,
              -33.43302
            ],
            [
              -70.624902,
              -33.434188
            ],
            [
              -70.625338,
              -33.434723
            ],
            [
              -70.626337,
              -33.439903
            ],
            [
              -70.626263,
              -33.440255
            ],
            [
              -70.626134,
              -33.440369
            ],
            [
              -70.624511,
              -33.441322
            ],
            [
              -70.622686,
              -33.442146
            ],
            [
              -70.620543,
              -33.443084
            ],
            [
              -70.62029,
              -33.443011
            ],
            [
              -70.620029,
              -33.442896
            ],
            [
              -70.619967,
              -33.442845
            ],
            [
              -70.619081,
              -33.442076
            ],
            [
              -70.619022,
              -33.442011
            ],
            [
              -70.618064,
              -33.440929
            ],
            [
              -70.617215,
              -33.4399
            ],
            [
              -70.617154,
              -33.439825
            ],
            [
              -70.616832,
              -33.438515
            ],
            [
              -70.61674,
              -33.437137
            ],
            [
              -70.616796,
              -33.436782
            ],
            [
              -70.618431,
              -33.435166
            ],
            [
              -70.618523,
              -33.435108
            ],
            [
              -70.618629,
              -33.435052
            ],
            [
              -70.621751,
              -33.433535
            ],
            [
              -70.623339,
              -33.433007
            ],
            [
              -70.623926,
              -33.43302
            ]
          ],
          [
            [
              -70.621366,
              -33.426165
            ],
            [
              -70.622646,
              -33.429561
            ],
            [
              -70.622738,
              -33.43007
            ],
            [
              -70.622753,
              -33.430242
            ],
            [
              -70.622543,
              -33.430535
            ],
            [
              -70.619919,
              -33.433498
            ],
            [
              -70.617362,
              -33.434299
            ],
            [
              -70.616916,
              -33.434404
            ],
            [
              -70.615566,
              -33.434476
            ],
            [
              -70.615534,
              -33.434474
            ],
            [
              -70.615197,
              -33.434348
            ],
            [
              -70.614499,
              -33.433602
            ],
            [
              -70.612805,
              -33.430838
            ],
            [
              -70.612775,
              -33.430774
            ],
            [
              -70.612845,
              -33.430421
            ],
            [
              -70.61289393121669,
              -33.430308547872485
            ],
            [
              -70.612164,
              -33.430001
            ],
            [
              -70.61175779636015,
              -33.42957940985863
            ],
            [
              -70.610182,
              -33.429933
            ],
            [
              -70.609844,
              -33.42981
            ],
            [
              -70.609752,
              -33.429692
            ],
            [
              -70.608102,
              -33.42754
            ],
            [
              -70.60763254451601,
              -33.426458548092995
            ],
            [
              -70.606233,
              -33.426212
            ],
            [
              -70.605891,
              -33.426101
            ],
            [
              -70.605549,
              -33.425649
            ],
            [
              -70.603974,
              -33.423513
            ],
            [
              -70.603862,
              -33.423357
            ],
            [
              -70.603681,
              -33.423099
            ],
            [
              -70.603309,
              -33.419014
            ],
            [
              -70.603439,
              -33.418679
            ],
            [
              -70.60506,
              -33.417723
            ],
            [
              -70.610132,
              -33.417655
            ],
            [
              -70.610263,
              -33.417657
            ],
            [
              -70.610434,
              -33.417677
            ],
            [
              -70.61186,
              -33.41891
            ],
            [
              -70.61189,
              -33.418976
            ],
            [
              -70.6124103295833,
              -33.42061252046358
            ],
            [
              -70.614451,
              -33.420393
            ],
            [
              -70.614753,
              -33.420458
            ],
            [
              -70.615076,
              -33.420616
            ],
            [
              -70.61537,
              -33.421044
            ],
            [
              -70.615895,
              -33.422033
            ],
            [
              -70.61652043142863,
              -33.42337223159141
            ],
            [
              -70.616948,
              -33.423378
            ],
            [
              -70.618153,
              -33.423834
            ],
            [
              -70.619781,
              -33.425242
            ],
            [
              -70.61999904540045,
              -33.42550880954751
            ],
            [
              -70.620199,
              -33.425538
            ],
            [
              -70.621366,
              -33.426165
            ]
          ]
        ]
      },
      "properties": {
        "zone_id": 3,
        "name": "Zona Goma",
        "time_range": "7 - 12 min",
        "crispness_level": "Baja / Tostadora Obligatoria",
        "desc": "Textura elastomérica por humedad residual. Requiere tostador.",
        "color": "#78909C",
        "opacity": 0.5
      }
    }
  ]
}