{
  "type": "FeatureCollection",
  "features": [
    {
      "type": "Feature",
      "geometry": {
        "type": "Point",
        "coordinates": [
          -73.0498,
          -36.827
        ]
      },
      "properties": {
        "id": "1",
        "name": "Panadería Central Gran Concepción",
        "shop": "bakery",
        "tipo_label": "Panadería Dedicada"
      }
    },
    {
      "type": "Feature",
      "geometry": {
        "type": "Point",
        "coordinates": [
          -73.04480000000001,
          -36.823
        ]
      },
      "properties": {
        "id": "2",
        "name": "Almacén Don Mario",
        "shop": "convenience",
        "tipo_label": "Almacén de Barrio"
      }
    }
  ]
}