{
  "type": "FeatureCollection",
  "features": [
    {
      "type": "Feature",
      "geometry": {
        "type": "MultiPolygon",
        "coordinates": [
          [
            [
              [
                -70.658128,
                -33.441305
              ],
              [
                -70.65665,
                -33.440678
              ],
              [
                -70.656298,
                -33.4406
              ],
              [
                -70.654621,
                -33.441586
              ],
              [
                -70.653961,
                -33.44201
              ],
              [
                -70.653903,
                -33.442048
              ],
              [
                -70.653866,
                -33.442407
              ],
              [
                -70.65493,
                -33.443619
              ],
              [
                -70.655562,
                -33.444234
              ],
              [
                -70.655915,
                -33.444305
              ],
              [
                -70.657697,
                -33.443923
              ],
              [
                -70.659179,
                -33.442973
              ],
              [
                -70.659205,
                -33.442946
              ],
              [
                -70.659245,
                -33.442589
              ],
              [
                -70.658128,
                -33.441305
              ]
            ]
          ],
          [
            [
              [
                -70.651701,
                -33.435723
              ],
              [
                -70.650081,
                -33.435355
              ],
              [
                -70.64977,
                -33.435536
              ],
              [
                -70.647937,
                -33.436794
              ],
              [
                -70.647899,
                -33.437152
              ],
              [
                -70.649024,
                -33.43846
              ],
              [
                -70.649453,
                -33.438817
              ],
              [
                -70.64981,
                -33.43887
              ],
              [
                -70.651229,
                -33.439017
              ],
              [
                -70.65171,
                -33.438726
              ],
              [
                -70.653238,
                -33.43775
              ],
              [
                -70.653278,
                -33.437392
              ],
              [
                -70.652076,
                -33.436087
              ],
              [
                -70.651701,
                -33.435723
              ]
            ]
          ],
          [
            [
              [
                -70.64651,
                -33.431796
              ],
              [
                -70.646403,
                -33.431762
              ],
              [
                -70.64477,
                -33.431438
              ],
              [
                -70.64468,
                -33.431444
              ],
              [
                -70.643807,
                -33.432249
              ],
              [
                -70.643007,
                -33.433759
              ],
              [
                -70.643087,
                -33.43411
              ],
              [
                -70.644604,
                -33.435036
              ],
              [
                -70.645833,
                -33.43524
              ],
              [
                -70.646189,
                -33.435292
              ],
              [
                -70.648262,
                -33.432863
              ],
              [
                -70.648176,
                -33.432513
              ],
              [
                -70.64651,
                -33.431796
              ]
            ]
          ]
        ]
      },
      "properties": {
        "zone_id": 1,
        "name": "Zona Marraqueta Crocante",
        "time_range": "0 - 3 min",
        "crispness_level": "Óptima / Crocante",
        "color": "#FF5722",
        "opacity": 0.7
      }
    },
    {
      "type": "Feature",
      "geometry": {
        "type": "Polygon",
        "coordinates": [
          [
            [
              -70.65095,
              -33.44316
            ],
            [
              -70.653561,
              -33.445964
            ],
            [
              -70.654931,
              -33.447186
            ],
            [
              -70.655287,
              -33.447241
            ],
            [
              -70.657311,
              -33.44691
            ],
            [
              -70.660889,
              -33.445251
            ],
            [
              -70.662774,
              -33.443299
            ],
            [
              -70.662811,
              -33.442941
            ],
            [
              -70.661688,
              -33.441658
            ],
            [
              -70.660912,
              -33.440833
            ],
            [
              -70.658412,
              -33.438361
            ],
            [
              -70.657102,
              -33.437689
            ],
            [
              -70.656745,
              -33.437642
            ],
            [
              -70.6567324856841,
              -33.43764810263607
            ],
            [
              -70.653528,
              -33.434137
            ],
            [
              -70.65263,
              -33.433247
            ],
            [
              -70.652221,
              -33.432905
            ],
            [
              -70.651796,
              -33.432702
            ],
            [
              -70.65139869129773,
              -33.432669683024216
            ],
            [
              -70.651737,
              -33.432103
            ],
            [
              -70.651794,
              -33.431997
            ],
            [
              -70.651789,
              -33.431896
            ],
            [
              -70.651649,
              -33.431754
            ],
            [
              -70.650754,
              -33.431215
            ],
            [
              -70.64889,
              -33.430307
            ],
            [
              -70.647244,
              -33.429547
            ],
            [
              -70.645528,
              -33.428858
            ],
            [
              -70.644126,
              -33.428561
            ],
            [
              -70.643974,
              -33.428569
            ],
            [
              -70.64378,
              -33.428664
            ],
            [
              -70.64272,
              -33.42956
            ],
            [
              -70.642319,
              -33.430034
            ],
            [
              -70.641106,
              -33.431584
            ],
            [
              -70.639545,
              -33.434561
            ],
            [
              -70.639626,
              -33.434911
            ],
            [
              -70.643275,
              -33.43721
            ],
            [
              -70.645443,
              -33.438133
            ],
            [
              -70.64549923405278,
              -33.43814168784523
            ],
            [
              -70.646628,
              -33.439365
            ],
            [
              -70.647939,
              -33.440714
            ],
            [
              -70.649174,
              -33.44198
            ],
            [
              -70.649195,
              -33.441982
            ],
            [
              -70.65030490923354,
              -33.44199151544965
            ],
            [
              -70.650297,
              -33.44208
            ],
            [
              -70.65095,
              -33.44316
            ]
          ],
          [
            [
              -70.659245,
              -33.442589
            ],
            [
              -70.659205,
              -33.442946
            ],
            [
              -70.659179,
              -33.442973
            ],
            [
              -70.657697,
              -33.443923
            ],
            [
              -70.655915,
              -33.444305
            ],
            [
              -70.655562,
              -33.444234
            ],
            [
              -70.65493,
              -33.443619
            ],
            [
              -70.653866,
              -33.442407
            ],
            [
              -70.653903,
              -33.442048
            ],
            [
              -70.653961,
              -33.44201
            ],
            [
              -70.654621,
              -33.441586
            ],
            [
              -70.656298,
              -33.4406
            ],
            [
              -70.65665,
              -33.440678
            ],
            [
              -70.658128,
              -33.441305
            ],
            [
              -70.659245,
              -33.442589
            ]
          ],
          [
            [
              -70.652076,
              -33.436087
            ],
            [
              -70.653278,
              -33.437392
            ],
            [
              -70.653238,
              -33.43775
            ],
            [
              -70.65171,
              -33.438726
            ],
            [
              -70.651229,
              -33.439017
            ],
            [
              -70.64981,
              -33.43887
            ],
            [
              -70.649453,
              -33.438817
            ],
            [
              -70.649024,
              -33.43846
            ],
            [
              -70.647899,
              -33.437152
            ],
            [
              -70.647937,
              -33.436794
            ],
            [
              -70.64977,
              -33.435536
            ],
            [
              -70.650081,
              -33.435355
            ],
            [
              -70.651701,
              -33.435723
            ],
            [
              -70.652076,
              -33.436087
            ]
          ],
          [
            [
              -70.648176,
              -33.432513
            ],
            [
              -70.648262,
              -33.432863
            ],
            [
              -70.646189,
              -33.435292
            ],
            [
              -70.645833,
              -33.43524
            ],
            [
              -70.644604,
              -33.435036
            ],
            [
              -70.643087,
              -33.43411
            ],
            [
              -70.643007,
              -33.433759
            ],
            [
              -70.643807,
              -33.432249
            ],
            [
              -70.64468,
              -33.431444
            ],
            [
              -70.64477,
              -33.431438
            ],
            [
              -70.646403,
              -33.431762
            ],
            [
              -70.64651,
              -33.431796
            ],
            [
              -70.648176,
              -33.432513
            ]
          ]
        ]
      },
      "properties": {
        "zone_id": 2,
        "name": "Zona Pan Tibio",
        "time_range": "3 - 7 min",
        "crispness_level": "Media / Comestible",
        "color": "#FFC107",
        "opacity": 0.6
      }
    },
    {
      "type": "Feature",
      "geometry": {
        "type": "Polygon",
        "coordinates": [
          [
            [
              -70.652777,
              -33.449404
            ],
            [
              -70.654339,
              -33.450899
            ],
            [
              -70.654694,
              -33.450957
            ],
            [
              -70.656637,
              -33.450621
            ],
            [
              -70.661435,
              -33.448303
            ],
            [
              -70.663365,
              -33.447275
            ],
            [
              -70.663949,
              -33.446953
            ],
            [
              -70.664006,
              -33.446917
            ],
            [
              -70.667198,
              -33.443837
            ],
            [
              -70.667266,
              -33.443483
            ],
            [
              -70.666247,
              -33.442106
            ],
            [
              -70.662599,
              -33.438371
            ],
            [
              -70.661388,
              -33.437103
            ],
            [
              -70.660005,
              -33.435703
            ],
            [
              -70.658909,
              -33.434638
            ],
            [
              -70.65788019690858,
              -33.43410515690383
            ],
            [
              -70.656516,
              -33.432103
            ],
            [
              -70.65592655596922,
              -33.43161016520748
            ],
            [
              -70.656163,
              -33.430893
            ],
            [
              -70.656155,
              -33.430866
            ],
            [
              -70.653739,
              -33.42878
            ],
            [
              -70.649833,
              -33.427419
            ],
            [
              -70.644873,
              -33.425266
            ],
            [
              -70.643008,
              -33.425058
            ],
            [
              -70.642628,
              -33.425149
            ],
            [
              -70.641108,
              -33.426054
            ],
            [
              -70.639643,
              -33.427685
            ],
            [
              -70.639338,
              -33.42805
            ],
            [
              -70.638391,
              -33.429273
            ],
            [
              -70.638174,
              -33.429561
            ],
            [
              -70.63665,
              -33.431955
            ],
            [
              -70.635371,
              -33.434659
            ],
            [
              -70.635316,
              -33.434975
            ],
            [
              -70.63523,
              -33.435539
            ],
            [
              -70.635218,
              -33.43582
            ],
            [
              -70.635218,
              -33.435822
            ],
            [
              -70.635279,
              -33.435896
            ],
            [
              -70.635385,
              -33.435984
            ],
            [
              -70.636478,
              -33.436578
            ],
            [
              -70.63681,
              -33.436761
            ],
            [
              -70.638737,
              -33.437531
            ],
            [
              -70.642014,
              -33.440498
            ],
            [
              -70.642291,
              -33.440729
            ],
            [
              -70.64422843823804,
              -33.44156528286465
            ],
            [
              -70.646063,
              -33.443391
            ],
            [
              -70.646933,
              -33.443965
            ],
            [
              -70.6485499673011,
              -33.444824459229864
            ],
            [
              -70.649756,
              -33.446201
            ],
            [
              -70.652777,
              -33.449404
            ]
          ],
          [
            [
              -70.65030490923354,
              -33.44199151544965
            ],
            [
              -70.649195,
              -33.441982
            ],
            [
              -70.649174,
              -33.44198
            ],
            [
              -70.647939,
              -33.440714
            ],
            [
              -70.646628,
              -33.439365
            ],
            [
              -70.64549923405278,
              -33.43814168784523
            ],
            [
              -70.645443,
              -33.438133
            ],
            [
              -70.643275,
              -33.43721
            ],
            [
              -70.639626,
              -33.434911
            ],
            [
              -70.639545,
              -33.434561
            ],
            [
              -70.641106,
              -33.431584
            ],
            [
              -70.642319,
              -33.430034
            ],
            [
              -70.64272,
              -33.42956
            ],
            [
              -70.64378,
              -33.428664
            ],
            [
              -70.643974,
              -33.428569
            ],
            [
              -70.644126,
              -33.428561
            ],
            [
              -70.645528,
              -33.428858
            ],
            [
              -70.647244,
              -33.429547
            ],
            [
              -70.64889,
              -33.430307
            ],
            [
              -70.650754,
              -33.431215
            ],
            [
              -70.651649,
              -33.431754
            ],
            [
              -70.651789,
              -33.431896
            ],
            [
              -70.651794,
              -33.431997
            ],
            [
              -70.651737,
              -33.432103
            ],
            [
              -70.65139869129773,
              -33.432669683024216
            ],
            [
              -70.651796,
              -33.432702
            ],
            [
              -70.652221,
              -33.432905
            ],
            [
              -70.65263,
              -33.433247
            ],
            [
              -70.653528,
              -33.434137
            ],
            [
              -70.6567324856841,
              -33.43764810263607
            ],
            [
              -70.656745,
              -33.437642
            ],
            [
              -70.657102,
              -33.437689
            ],
            [
              -70.658412,
              -33.438361
            ],
            [
              -70.660912,
              -33.440833
            ],
            [
              -70.661688,
              -33.441658
            ],
            [
              -70.662811,
              -33.442941
            ],
            [
              -70.662774,
              -33.443299
            ],
            [
              -70.660889,
              -33.445251
            ],
            [
              -70.657311,
              -33.44691
            ],
            [
              -70.655287,
              -33.447241
            ],
            [
              -70.654931,
              -33.447186
            ],
            [
              -70.653561,
              -33.445964
            ],
            [
              -70.65095,
              -33.44316
            ],
            [
              -70.650297,
              -33.44208
            ],
            [
              -70.65030490923354,
              -33.44199151544965
            ]
          ]
        ]
      },
      "properties": {
        "zone_id": 3,
        "name": "Zona Goma",
        "time_range": "7 - 12 min",
        "crispness_level": "Baja / Requiere Tostadora",
        "color": "#607D8B",
        "opacity": 0.5
      }
    }
  ]
}